start=new Date('2023-06-24T00:00:00.000Z').valueOf();
sats=[{"APOAPSIS":"574.727","FILE":"3940573","TLE_LINE2":"2 55747  69.9987 221.3807 0003839 269.3039  90.7680 14.98329664 17703","MEAN_MOTION_DDOT":"0.0000000000000","OBJECT_ID":"2023-028G","REF_FRAME":"TEME","GP_ID":"234499564","PERIAPSIS":"569.391","LAUNCH_DATE":"2023-03-03","CLASSIFICATION_TYPE":"U","MEAN_ELEMENT_THEORY":"SGP4","TLE_LINE1":"1 55747U 23028G   23174.40641638  .00000102  00000-0  16348-4 0  9991","EPHEMERIS_TYPE":"0","RCS_SIZE":"LARGE","EPOCH":"2023-06-23T09:45:14.375232","ARG_OF_PERICENTER":"269.3039","RA_OF_ASC_NODE":"221.3807","NORAD_CAT_ID":"55747","MEAN_MOTION_DOT":"0.00000102","BSTAR":"0.00001634800000","OBJECT_TYPE":"PAYLOAD","SEMIMAJOR_AXIS":"6950.194","MEAN_MOTION":"14.98329664","ELEMENT_SET_NO":"999","INCLINATION":"69.9987","REV_AT_EPOCH":"1770","MEAN_ANOMALY":"90.7680","PERIOD":"96.107","SITE":"AFWTR","TIME_SYSTEM":"UTC","ECCENTRICITY":"0.00038390","OBJECT_NAME":"STARLINK-5539","CENTER_NAME":"EARTH","DECAY_DATE":null,"COUNTRY_CODE":"US"},{"BSTAR":"0.00004123800000","OBJECT_TYPE":"PAYLOAD","REV_AT_EPOCH":"1770","MEAN_ANOMALY":"91.1830","PERIOD":"96.107","MEAN_MOTION":"14.98333685","SEMIMAJOR_AXIS":"6950.181","ELEMENT_SET_NO":"999","INCLINATION":"69.9988","TIME_SYSTEM":"UTC","OBJECT_NAME":"STARLINK-5580","ECCENTRICITY":"0.00039050","SITE":"AFWTR","DECAY_DATE":null,"CENTER_NAME":"EARTH","COUNTRY_CODE":"US","TLE_LINE2":"2 55748  69.9988 221.3666 0003905 268.8881  91.1830 14.98333685 17701","FILE":"3940573","APOAPSIS":"574.761","OBJECT_ID":"2023-028H","MEAN_MOTION_DDOT":"0.0000000000000","GP_ID":"234499559","LAUNCH_DATE":"2023-03-03","PERIAPSIS":"569.332","REF_FRAME":"TEME","EPOCH":"2023-06-23T09:39:13.450464","TLE_LINE1":"1 55748U 23028H   23174.40223901  .00000399  00000-0  41238-4 0  9995","MEAN_ELEMENT_THEORY":"SGP4","EPHEMERIS_TYPE":"0","CLASSIFICATION_TYPE":"U","RCS_SIZE":"LARGE","NORAD_CAT_ID":"55748","MEAN_MOTION_DOT":"0.00000399","RA_OF_ASC_NODE":"221.3666","ARG_OF_PERICENTER":"268.8881"},{"TLE_LINE2":"2 55749  69.9990 221.3077 0003628 268.3180  91.7564 14.98330303 17704","FILE":"3940693","APOAPSIS":"574.578","OBJECT_ID":"2023-028J","MEAN_MOTION_DDOT":"0.0000000000000","REF_FRAME":"TEME","GP_ID":"234502625","PERIAPSIS":"569.535","LAUNCH_DATE":"2023-03-03","TLE_LINE1":"1 55749U 23028J   23174.38570982  .00000331  00000-0  35504-4 0  9992","MEAN_ELEMENT_THEORY":"SGP4","EPHEMERIS_TYPE":"0","CLASSIFICATION_TYPE":"U","RCS_SIZE":"LARGE","EPOCH":"2023-06-23T09:15:25.328448","RA_OF_ASC_NODE":"221.3077","ARG_OF_PERICENTER":"268.3180","MEAN_MOTION_DOT":"0.00000331","NORAD_CAT_ID":"55749","BSTAR":"0.00003550400000","OBJECT_TYPE":"PAYLOAD","INCLINATION":"69.9990","SEMIMAJOR_AXIS":"6950.192","ELEMENT_SET_NO":"999","MEAN_MOTION":"14.98330303","REV_AT_EPOCH":"1770","MEAN_ANOMALY":"91.7564","PERIOD":"96.107","SITE":"AFWTR","TIME_SYSTEM":"UTC","OBJECT_NAME":"STARLINK-5560","ECCENTRICITY":"0.00036280","DECAY_DATE":null,"CENTER_NAME":"EARTH","COUNTRY_CODE":"US"},{"COUNTRY_CODE":"US","CENTER_NAME":"EARTH","DECAY_DATE":null,"SITE":"AFWTR","ECCENTRICITY":"0.00040970","OBJECT_NAME":"STARLINK-5573","TIME_SYSTEM":"UTC","MEAN_MOTION":"14.98319377","SEMIMAJOR_AXIS":"6950.226","ELEMENT_SET_NO":"999","INCLINATION":"69.9987","MEAN_ANOMALY":"85.8027","PERIOD":"96.108","REV_AT_EPOCH":"1770","OBJECT_TYPE":"PAYLOAD","BSTAR":"-0.00008658300000","RA_OF_ASC_NODE":"221.3547","ARG_OF_PERICENTER":"274.2664","NORAD_CAT_ID":"55750","MEAN_MOTION_DOT":"-0.00001126","RCS_SIZE":"LARGE","CLASSIFICATION_TYPE":"U","TLE_LINE1":"1 55750U 23028K   23174.39808602 -.00001126  00000-0 -86583-4 0  9996","MEAN_ELEMENT_THEORY":"SGP4","EPHEMERIS_TYPE":"0","EPOCH":"2023-06-23T09:33:14.632128","REF_FRAME":"TEME","PERIAPSIS":"569.243","LAUNCH_DATE":"2023-03-03","GP_ID":"234499562","MEAN_MOTION_DDOT":"0.0000000000000","OBJECT_ID":"2023-028K","APOAPSIS":"574.938","FILE":"3940573","TLE_LINE2":"2 55750  69.9987 221.3547 0004097 274.2664  85.8027 14.98319377 17704"},{"TIME_SYSTEM":"UTC","ECCENTRICITY":"0.00038250","OBJECT_NAME":"STARLINK-5577","SITE":"AFWTR","CENTER_NAME":"EARTH","DECAY_DATE":null,"COUNTRY_CODE":"US","BSTAR":"0.00000764120000","OBJECT_TYPE":"PAYLOAD","REV_AT_EPOCH":"1772","MEAN_ANOMALY":"87.2925","PERIOD":"96.107","MEAN_MOTION":"14.98331428","SEMIMAJOR_AXIS":"6950.188","ELEMENT_SET_NO":"999","INCLINATION":"69.9986","EPOCH":"2023-06-23T13:03:31.161024","CLASSIFICATION_TYPE":"U","EPHEMERIS_TYPE":"0","TLE_LINE1":"1 55751U 23028L   23174.54411066 -.00000002  00000-0  76412-5 0  9990","MEAN_ELEMENT_THEORY":"SGP4","RCS_SIZE":"LARGE","NORAD_CAT_ID":"55751","MEAN_MOTION_DOT":"-0.00000002","RA_OF_ASC_NODE":"221.0586","ARG_OF_PERICENTER":"272.7796","APOAPSIS":"574.712","FILE":"3940847","TLE_LINE2":"2 55751  69.9986 221.0586 0003825 272.7796  87.2925 14.98331428 17727","MEAN_MOTION_DDOT":"0.0000000000000","OBJECT_ID":"2023-028L","GP_ID":"234506456","PERIAPSIS":"569.395","LAUNCH_DATE":"2023-03-03","REF_FRAME":"TEME"},{"FILE":"3940528","APOAPSIS":"574.748","TLE_LINE2":"2 55752  69.9989 221.2623 0003887 269.4100  90.6613 14.98333776 17703","MEAN_MOTION_DDOT":"0.0000000000000","OBJECT_ID":"2023-028M","GP_ID":"234498637","LAUNCH_DATE":"2023-03-03","PERIAPSIS":"569.345","REF_FRAME":"TEME","EPOCH":"2023-06-23T08:57:08.922816","CLASSIFICATION_TYPE":"U","MEAN_ELEMENT_THEORY":"SGP4","TLE_LINE1":"1 55752U 23028M   23174.37301994  .00000044  00000-0  11487-4 0  9995","EPHEMERIS_TYPE":"0","RCS_SIZE":"LARGE","MEAN_MOTION_DOT":"0.00000044","NORAD_CAT_ID":"55752","RA_OF_ASC_NODE":"221.2623","ARG_OF_PERICENTER":"269.4100","BSTAR":"0.00001148700000","OBJECT_TYPE":"PAYLOAD","REV_AT_EPOCH":"1770","PERIOD":"96.107","MEAN_ANOMALY":"90.6613","ELEMENT_SET_NO":"999","SEMIMAJOR_AXIS":"6950.181","INCLINATION":"69.9989","MEAN_MOTION":"14.98333776","TIME_SYSTEM":"UTC","ECCENTRICITY":"0.00038870","OBJECT_NAME":"STARLINK-5613","SITE":"AFWTR","CENTER_NAME":"EARTH","DECAY_DATE":null,"COUNTRY_CODE":"US"},{"ECCENTRICITY":"0.00036550","OBJECT_NAME":"STARLINK-5617","TIME_SYSTEM":"UTC","SITE":"AFWTR","COUNTRY_CODE":"US","CENTER_NAME":"EARTH","DECAY_DATE":null,"OBJECT_TYPE":"PAYLOAD","BSTAR":"0.00005638100000","PERIOD":"96.107","MEAN_ANOMALY":"90.3866","REV_AT_EPOCH":"1770","SEMIMAJOR_AXIS":"6950.179","INCLINATION":"69.9991","ELEMENT_SET_NO":"999","MEAN_MOTION":"14.98334423","EPOCH":"2023-06-23T09:27:12.134016","RCS_SIZE":"LARGE","CLASSIFICATION_TYPE":"U","EPHEMERIS_TYPE":"0","TLE_LINE1":"1 55753U 23028N   23174.39389044  .00000580  00000-0  56381-4 0  9997","MEAN_ELEMENT_THEORY":"SGP4","MEAN_MOTION_DOT":"0.00000580","NORAD_CAT_ID":"55753","RA_OF_ASC_NODE":"221.3375","ARG_OF_PERICENTER":"269.6875","MEAN_MOTION_DDOT":"0.0000000000000","OBJECT_ID":"2023-028N","APOAPSIS":"574.585","FILE":"3940528","TLE_LINE2":"2 55753  69.9991 221.3375 0003655 269.6875  90.3866 14.98334423 17703","LAUNCH_DATE":"2023-03-03","PERIAPSIS":"569.504","GP_ID":"234498634","REF_FRAME":"TEME"},{"EPOCH":"2023-06-23T09:09:10.508832","CLASSIFICATION_TYPE":"U","TLE_LINE1":"1 55754U 23028P   23174.38137163 -.00000929  00000-0 -70094-4 0  9996","MEAN_ELEMENT_THEORY":"SGP4","EPHEMERIS_TYPE":"0","RCS_SIZE":"LARGE","MEAN_MOTION_DOT":"-0.00000929","NORAD_CAT_ID":"55754","ARG_OF_PERICENTER":"270.3464","RA_OF_ASC_NODE":"221.2946","FILE":"3940712","APOAPSIS":"574.474","TLE_LINE2":"2 55754  69.9995 221.2946 0003491 270.3464  89.7294 14.98333386 17706","MEAN_MOTION_DDOT":"0.0000000000000","OBJECT_ID":"2023-028P","GP_ID":"234503195","PERIAPSIS":"569.621","LAUNCH_DATE":"2023-03-03","REF_FRAME":"TEME","TIME_SYSTEM":"UTC","ECCENTRICITY":"0.00034910","OBJECT_NAME":"STARLINK-5612","SITE":"AFWTR","CENTER_NAME":"EARTH","DECAY_DATE":null,"COUNTRY_CODE":"US","BSTAR":"-0.00007009400000","OBJECT_TYPE":"PAYLOAD","REV_AT_EPOCH":"1770","PERIOD":"96.107","MEAN_ANOMALY":"89.7294","MEAN_MOTION":"14.98333386","SEMIMAJOR_AXIS":"6950.182","ELEMENT_SET_NO":"999","INCLINATION":"69.9995"},{"OBJECT_ID":"2023-028Q","MEAN_MOTION_DDOT":"0.0000000000000","TLE_LINE2":"2 55755  69.9992 220.7310 0003700 269.5743  90.4992 14.98332327 17737","APOAPSIS":"574.622","FILE":"3940847","REF_FRAME":"TEME","PERIAPSIS":"569.479","LAUNCH_DATE":"2023-03-03","GP_ID":"234506463","RCS_SIZE":"MEDIUM","EPHEMERIS_TYPE":"0","TLE_LINE1":"1 55755U 23028Q   23174.56929145  .00000134  00000-0  19064-4 0  9992","MEAN_ELEMENT_THEORY":"SGP4","CLASSIFICATION_TYPE":"U","EPOCH":"2023-06-23T13:39:46.781280","ARG_OF_PERICENTER":"269.5743","RA_OF_ASC_NODE":"220.7310","MEAN_MOTION_DOT":"0.00000134","NORAD_CAT_ID":"55755","OBJECT_TYPE":"PAYLOAD","BSTAR":"0.00001906400000","ELEMENT_SET_NO":"999","SEMIMAJOR_AXIS":"6950.186","INCLINATION":"69.9992","MEAN_MOTION":"14.98332327","PERIOD":"96.107","MEAN_ANOMALY":"90.4992","REV_AT_EPOCH":"1773","SITE":"AFWTR","OBJECT_NAME":"STARLINK-5619","ECCENTRICITY":"0.00037000","TIME_SYSTEM":"UTC","COUNTRY_CODE":"US","DECAY_DATE":null,"CENTER_NAME":"EARTH"},{"OBJECT_TYPE":"PAYLOAD","BSTAR":"0.00002852700000","ELEMENT_SET_NO":"999","SEMIMAJOR_AXIS":"6950.180","MEAN_MOTION":"14.98334036","INCLINATION":"69.9987","MEAN_ANOMALY":"90.9829","PERIOD":"96.107","REV_AT_EPOCH":"1771","SITE":"AFWTR","OBJECT_NAME":"STARLINK-5614","ECCENTRICITY":"0.00035790","TIME_SYSTEM":"UTC","COUNTRY_CODE":"US","DECAY_DATE":null,"CENTER_NAME":"EARTH","OBJECT_ID":"2023-028R","MEAN_MOTION_DDOT":"0.0000000000000","TLE_LINE2":"2 55756  69.9987 221.0630 0003579 269.0920  90.9829 14.98334036 17718","FILE":"3940693","APOAPSIS":"574.533","REF_FRAME":"TEME","LAUNCH_DATE":"2023-03-03","PERIAPSIS":"569.558","GP_ID":"234503128","RCS_SIZE":"LARGE","MEAN_ELEMENT_THEORY":"SGP4","TLE_LINE1":"1 55756U 23028R   23174.43143200  .00000247  00000-0  28527-4 0  9998","EPHEMERIS_TYPE":"0","CLASSIFICATION_TYPE":"U","EPOCH":"2023-06-23T10:21:15.724800","ARG_OF_PERICENTER":"269.0920","RA_OF_ASC_NODE":"221.0630","NORAD_CAT_ID":"55756","MEAN_MOTION_DOT":"0.00000247"}];
